{"type":"FeatureCollection","features":[{"type":"Feature","properties":{"MTFCC":"R1011","FULLNAME":""},"geometry":{"type":"MultiLineString","coordinates":[[[-103.810368,30.279845],[-103.809232,30.279799],[-103.808397,30.279886],[-103.807912,30.279937],[-103.803712,30.280627],[-103.802788,30.280949],[-103.802622,30.281072],[-103.801679,30.281775],[-103.801142,30.282368],[-103.800993,30.282531],[-103.800858,30.28279],[-103.800543,30.283401],[-103.800376,30.284235],[-103.800333,30.284455],[-103.800377,30.28474],[-103.800412,30.285027],[-103.800558,30.285736],[-103.800625,30.286058],[-103.801533,30.288031],[-103.801663,30.288556],[-103.801815,30.289165],[-103.801789,30.289551],[-103.801751,30.289775],[-103.801636,30.290448],[-103.801599,30.290673],[-103.801949,30.29106],[-103.802003,30.292594],[-103.802385,30.294431],[-103.803425,30.296128],[-103.804953,30.297895],[-103.805308,30.298305],[-103.805768,30.29916],[-103.805951,30.299463],[-103.806053,30.299633],[-103.806202,30.299982],[-103.806245,30.300123],[-103.806432,30.300738],[-103.8062,30.301648],[-103.806155,30.301827],[-103.806104,30.302029],[-103.806022,30.302136],[-103.805781,30.30256],[-103.80549,30.303233],[-103.805471,30.30328],[-103.805319,30.303862],[-103.804411,30.306733],[-103.80428,30.30715],[-103.803917,30.307846],[-103.803461,30.308632],[-103.803151,30.308966],[-103.80259,30.309572],[-103.8009,30.310582],[-103.799767,30.31122],[-103.798579,30.31189]]]}},{"type":"Feature","properties":{"MTFCC":"R1011","FULLNAME":""},"geometry":{"type":"MultiLineString","coordinates":[[[-103.837638,30.27126],[-103.835921,30.27094],[-103.834522,30.270666],[-103.832779,30.270804],[-103.832251,30.270942],[-103.83176,30.271132],[-103.826421,30.273208],[-103.82428,30.27404],[-103.822009,30.274981],[-103.820584,30.275898],[-103.817168,30.278935],[-103.816154,30.279629],[-103.816071,30.279687],[-103.816045,30.279705],[-103.815121,30.280163],[-103.814076,30.280382],[-103.813405,30.280393],[-103.812025,30.280194],[-103.811503,30.280119],[-103.810368,30.279845]]]}},{"type":"Feature","properties":{"MTFCC":"R1011","FULLNAME":""},"geometry":{"type":"MultiLineString","coordinates":[[[-103.817549,30.278146],[-103.816705,30.278789],[-103.816315,30.279085],[-103.815833,30.279453],[-103.815173,30.27982],[-103.814329,30.280026],[-103.81293,30.280089],[-103.812131,30.280013],[-103.811912,30.279992],[-103.810368,30.279845]]]}},{"type":"Feature","properties":{"MTFCC":"R1011","FULLNAME":""},"geometry":{"type":"MultiLineString","coordinates":[[[-104.026141,30.309794],[-104.025817,30.309873],[-104.024846,30.31011],[-104.024523,30.31019],[-104.024147,30.310283],[-104.023021,30.310562],[-104.022646,30.310656],[-104.022355,30.310728],[-104.021482,30.310946],[-104.021192,30.31102],[-104.020689,30.311144],[-104.01918,30.311518],[-104.018678,30.311643],[-104.018266,30.311743],[-104.017031,30.312045],[-104.01662,30.312146],[-104.016408,30.312201],[-104.015964,30.312319],[-104.015771,30.312354],[-104.015556,30.312394],[-104.015413,30.31242],[-104.014983,30.312498],[-104.014841,30.312525],[-104.014719,30.312549],[-104.014353,30.312621],[-104.014231,30.312645],[-104.012936,30.312741],[-104.01105,30.312883],[-104.009046,30.312934],[-104.007748,30.312968],[-104.006117,30.312965],[-104.003999,30.312962],[-104.001226,30.312921],[-104.000463,30.31291],[-103.999627,30.31268],[-103.999289,30.312675],[-103.998723,30.312667],[-103.998303,30.312517],[-103.997986,30.312404],[-103.997898,30.312389],[-103.997666,30.312343],[-103.99659,30.311935],[-103.99651,30.311843],[-103.996114,30.31166],[-103.995961,30.311558],[-103.994842,30.310815],[-103.993968,30.309992],[-103.993252,30.309192],[-103.991297,30.306868],[-103.98987,30.305171],[-103.989414,30.304631],[-103.989381,30.304592],[-103.989037,30.304203],[-103.988163,30.303219],[-103.98798,30.303078],[-103.987422,30.302647],[-103.98647,30.30203],[-103.986073,30.301847],[-103.984698,30.301048],[-103.984592,30.30091],[-103.984222,30.300728],[-103.983111,30.300134],[-103.981974,30.299723],[-103.980996,30.299541],[-103.979859,30.299459],[-103.97912,30.299407],[-103.966838,30.299334],[-103.965781,30.299221],[-103.965341,30.299058],[-103.955494,30.295411],[-103.95185,30.294062],[-103.948785,30.293333],[-103.947492,30.293095],[-103.946936,30.292992],[-103.944727,30.292502],[-103.936446,30.290667],[-103.933686,30.290056],[-103.932839,30.289869],[-103.930301,30.289308],[-103.929455,30.289121],[-103.928302,30.288866],[-103.924845,30.288102],[-103.923693,30.287848],[-103.920073,30.287045],[-103.912782,30.28543],[-103.910396,30.284927],[-103.909208,30.284677],[-103.905581,30.283913],[-103.904987,30.283786],[-103.90382,30.283352],[-103.903322,30.283168],[-103.902211,30.282528],[-103.899617,30.280582],[-103.899183,30.280333],[-103.897577,30.279412],[-103.896838,30.278985],[-103.895047,30.277952],[-103.894598,30.27775],[-103.89382,30.277401],[-103.89357,30.277289],[-103.891386,30.276838],[-103.891141,30.276788],[-103.889214,30.27656],[-103.883906,30.276201],[-103.881409,30.276033],[-103.872583,30.275432],[-103.856764,30.274355],[-103.852217,30.274046],[-103.846108,30.27361],[-103.844268,30.273479],[-103.842868,30.273159],[-103.837638,30.27126]]]}},{"type":"Feature","properties":{"MTFCC":"R1011","FULLNAME":""},"geometry":{"type":"MultiLineString","coordinates":[[[-103.681326,30.351155],[-103.673643,30.35343],[-103.671947,30.353929],[-103.671153,30.354167],[-103.67015,30.354453],[-103.669148,30.354761],[-103.668144,30.355058],[-103.667157,30.355347],[-103.665156,30.355947],[-103.664404,30.356172],[-103.663129,30.356542],[-103.662138,30.356826],[-103.661149,30.357133],[-103.659998,30.357444],[-103.659451,30.357579],[-103.65892,30.357706],[-103.658114,30.357873],[-103.657127,30.358086],[-103.656291,30.358252],[-103.654378,30.358615],[-103.654329,30.358625],[-103.653274,30.358839],[-103.652197,30.359056],[-103.651204,30.359257],[-103.650225,30.359455],[-103.650184,30.359463],[-103.649283,30.359643],[-103.647955,30.359947],[-103.647518,30.360047],[-103.6471,30.360158],[-103.644773,30.360739],[-103.642625,30.361273],[-103.639951,30.36194],[-103.639175,30.362132],[-103.631911,30.36394],[-103.628349,30.364803],[-103.624499,30.365777],[-103.624111,30.365876],[-103.623826,30.365944],[-103.623533,30.366019],[-103.623331,30.366078],[-103.622559,30.366359],[-103.621132,30.367209],[-103.619864,30.368603],[-103.61807,30.371575],[-103.617462,30.372123],[-103.616276,30.3729],[-103.615039,30.373421],[-103.61169,30.37421],[-103.609397,30.374662],[-103.607763,30.375114],[-103.605506,30.376167],[-103.599779,30.378854],[-103.595452,30.380877],[-103.59275,30.382141],[-103.591825,30.38301],[-103.591296,30.383971],[-103.590582,30.385824],[-103.589922,30.386648],[-103.588813,30.38747],[-103.58803,30.38796],[-103.586039,30.389206],[-103.584929,30.389662],[-103.583821,30.38982],[-103.582844,30.389726],[-103.581156,30.388944],[-103.57786,30.387012],[-103.577423,30.386816],[-103.576674,30.386481],[-103.571424,30.384912],[-103.565939,30.383273],[-103.557309,30.380802],[-103.553502,30.379717],[-103.552533,30.379441],[-103.551054,30.378888],[-103.549286,30.377671],[-103.548178,30.376661],[-103.547412,30.376201],[-103.545907,30.37558],[-103.545109,30.375383],[-103.544507,30.375234],[-103.542948,30.375162],[-103.539382,30.375087],[-103.538061,30.374764],[-103.530358,30.371481],[-103.526165,30.369694],[-103.516736,30.365677],[-103.505453,30.361894],[-103.504005,30.361409],[-103.503442,30.361082],[-103.502659,30.360628],[-103.50046,30.359257],[-103.497098,30.357028],[-103.495748,30.356045],[-103.493749,30.354337],[-103.493286,30.353941],[-103.492968,30.353598],[-103.488228,30.349114],[-103.487486,30.348107],[-103.486651,30.346488],[-103.485788,30.344856],[-103.485072,30.343734],[-103.484039,30.342613],[-103.48288,30.341701],[-103.482557,30.341447],[-103.480547,30.340304],[-103.476739,30.338385],[-103.475415,30.337265],[-103.47433,30.336098],[-103.466223,30.320549],[-103.460832,30.310041],[-103.459585,30.306857],[-103.45908,30.305506],[-103.455126,30.295429],[-103.451043,30.284754],[-103.450456,30.283894],[-103.449641,30.282703],[-103.44944,30.282499],[-103.448595,30.281652],[-103.4475,30.28091],[-103.447468,30.280888],[-103.446347,30.280304],[-103.445154,30.279778],[-103.445092,30.279751],[-103.444455,30.279472],[-103.443424,30.278901],[-103.44242,30.278491],[-103.439535,30.276713],[-103.438932,30.276341],[-103.437637,30.275678],[-103.435495,30.273802],[-103.435054,30.273511],[-103.433592,30.272544],[-103.431426,30.271676],[-103.429549,30.270371],[-103.426483,30.268015],[-103.425003,30.267008],[-103.424395,30.266596],[-103.417618,30.263052],[-103.416046,30.262231],[-103.41467,30.261273],[-103.403193,30.251969],[-103.401845,30.251146],[-103.399757,30.250256],[-103.396771,30.249071],[-103.395231,30.248276],[-103.394208,30.247747],[-103.393098,30.246878],[-103.392146,30.246078],[-103.388314,30.242132],[-103.386771,30.240562]]]}},{"type":"Feature","properties":{"MTFCC":"R1011","FULLNAME":""},"geometry":{"type":"MultiLineString","coordinates":[[[-103.362421,30.611914],[-103.36593,30.611183],[-103.367566,30.610923],[-103.368008,30.610853],[-103.371819,30.60994],[-103.387833,30.606574],[-103.395217,30.60502],[-103.402854,30.603566],[-103.426632,30.598484],[-103.429071,30.59777],[-103.430024,30.597332],[-103.434106,30.595286],[-103.445314,30.589859],[-103.461002,30.585197],[-103.464871,30.583654],[-103.476974,30.576823],[-103.480636,30.575019],[-103.481133,30.574774],[-103.482513,30.574149],[-103.484209,30.572583],[-103.485378,30.571065],[-103.489594,30.562579],[-103.490096,30.561644],[-103.49052,30.560855],[-103.491369,30.56014],[-103.495659,30.557298],[-103.498961,30.555111],[-103.500455,30.554123],[-103.511435,30.546917],[-103.511634,30.546771],[-103.518896,30.541994],[-103.529422,30.535045],[-103.530616,30.534336],[-103.534422,30.53245],[-103.535091,30.532166],[-103.546989,30.527284],[-103.548734,30.5265],[-103.550125,30.525875],[-103.558127,30.519468],[-103.56137,30.516873],[-103.563765,30.514954],[-103.564214,30.514601],[-103.56539,30.513578],[-103.56692,30.511829],[-103.576975,30.500208],[-103.591495,30.483661],[-103.5987,30.475393],[-103.609688,30.462724],[-103.613358,30.459281],[-103.614342,30.457997],[-103.614716,30.457353],[-103.615514,30.456458],[-103.616576,30.455884],[-103.619309,30.454506],[-103.621806,30.452715],[-103.621966,30.452589],[-103.622073,30.452504],[-103.634484,30.442733],[-103.638217,30.440238],[-103.646444,30.435086],[-103.655684,30.4293],[-103.664369,30.423957],[-103.671533,30.419549],[-103.673359,30.417992],[-103.674312,30.416845],[-103.674939,30.415566],[-103.674975,30.415494],[-103.675319,30.414006],[-103.675294,30.412495],[-103.675247,30.412077],[-103.675163,30.411325],[-103.674306,30.397083],[-103.674198,30.395287],[-103.673981,30.39169],[-103.673898,30.387002],[-103.673935,30.38684],[-103.673931,30.386684],[-103.673894,30.386469],[-103.673661,30.383518],[-103.672925,30.374183],[-103.672834,30.372673],[-103.672821,30.372455],[-103.672781,30.371737],[-103.672735,30.370934],[-103.672717,30.370599],[-103.672625,30.368865],[-103.672587,30.368147],[-103.672557,30.36763],[-103.672483,30.36637],[-103.67247,30.366153],[-103.67241,30.365127],[-103.672346,30.364161],[-103.672327,30.3637],[-103.672306,30.363237],[-103.672252,30.362049],[-103.672223,30.361386],[-103.672197,30.361024],[-103.672125,30.36],[-103.672259,30.359054],[-103.672275,30.358811],[-103.672014,30.357641],[-103.672038,30.357311],[-103.67217,30.356728],[-103.672287,30.356311],[-103.672411,30.356002],[-103.672462,30.355895],[-103.672534,30.355772],[-103.672744,30.355439],[-103.672991,30.355099],[-103.67316,30.354913],[-103.673317,30.354744],[-103.673564,30.354508],[-103.674371,30.353779],[-103.675137,30.353435],[-103.675257,30.353386],[-103.67604,30.353077],[-103.676442,30.352972],[-103.677234,30.352768],[-103.677384,30.352709],[-103.678269,30.352422],[-103.678355,30.352387],[-103.679138,30.352051],[-103.679916,30.351734],[-103.680294,30.35156],[-103.681326,30.351155]]]}},{"type":"Feature","properties":{"MTFCC":"R1011","FULLNAME":""},"geometry":{"type":"MultiLineString","coordinates":[[[-103.798579,30.31189],[-103.79785,30.3123],[-103.797183,30.312678],[-103.787774,30.317987],[-103.787211,30.318317],[-103.786734,30.318597],[-103.774173,30.325956],[-103.773786,30.326133],[-103.773345,30.326335],[-103.77307,30.326433],[-103.7724,30.326676],[-103.767697,30.328784],[-103.766692,30.329222],[-103.765002,30.330184],[-103.762112,30.331896],[-103.761861,30.332045],[-103.758584,30.333987],[-103.756946,30.335224],[-103.756451,30.335549],[-103.75597,30.335865],[-103.749518,30.339819],[-103.748894,30.340163],[-103.74756,30.340896],[-103.745095,30.341977],[-103.741038,30.343836],[-103.73905,30.344641],[-103.724674,30.349346],[-103.717363,30.351739],[-103.71538,30.352655],[-103.713504,30.35325],[-103.712288,30.353502],[-103.70399,30.354874],[-103.699154,30.355696],[-103.697225,30.355718],[-103.695878,30.355465],[-103.694636,30.354961],[-103.691599,30.353469],[-103.690464,30.352598],[-103.689852,30.352309],[-103.689772,30.352271],[-103.68966,30.35221],[-103.68953,30.352157],[-103.688324,30.351588],[-103.686527,30.350721],[-103.686198,30.350655],[-103.685075,30.350609],[-103.684921,30.350574],[-103.684473,30.350561],[-103.68423,30.350557],[-103.683394,30.350596],[-103.682956,30.350691],[-103.68205,30.350886],[-103.681326,30.351155]]]}},{"type":"Feature","properties":{"MTFCC":"R1011","FULLNAME":""},"geometry":{"type":"MultiLineString","coordinates":[[[-103.837638,30.27126],[-103.835631,30.270596],[-103.834284,30.270414],[-103.833579,30.270464],[-103.832673,30.270529],[-103.83109,30.271034],[-103.826479,30.27286],[-103.82182,30.274705],[-103.821587,30.274798],[-103.820795,30.275279],[-103.818552,30.277274],[-103.818351,30.277448],[-103.817749,30.277971],[-103.817549,30.278146]]]}},{"type":"Feature","properties":{"MTFCC":"R1011","FULLNAME":""},"geometry":{"type":"MultiLineString","coordinates":[[[-103.91937,30.215966],[-103.918866,30.21635],[-103.918032,30.217058],[-103.916113,30.218609],[-103.905979,30.226801],[-103.904699,30.227691],[-103.902634,30.228716],[-103.902254,30.228876],[-103.895919,30.231503],[-103.876915,30.239383],[-103.870581,30.242011],[-103.867671,30.243215],[-103.865961,30.243924],[-103.858941,30.246832],[-103.856032,30.248038],[-103.854726,30.248582],[-103.850811,30.250214],[-103.850514,30.250338],[-103.849499,30.250741],[-103.845705,30.252312],[-103.834326,30.257026],[-103.831054,30.258383],[-103.830568,30.258667],[-103.829603,30.259232],[-103.828696,30.26004],[-103.828653,30.26008],[-103.827598,30.261593],[-103.82533,30.265422],[-103.824987,30.265967],[-103.823748,30.267944],[-103.823666,30.268078],[-103.82342,30.268483],[-103.823339,30.268619],[-103.823236,30.268777],[-103.822926,30.269252],[-103.822824,30.269411],[-103.822398,30.270136],[-103.821122,30.272311],[-103.820726,30.272988],[-103.820697,30.273037],[-103.820681,30.273062],[-103.820635,30.273138],[-103.82062,30.273164],[-103.820038,30.274107],[-103.818293,30.276936],[-103.817712,30.27788],[-103.817679,30.277933],[-103.817581,30.278092],[-103.817549,30.278146]]]}}]}